{
    "links": {
        "self": "http://www.neowsapp.com/rest/v1/neo/3666927?api_key=iIulBulltgU6a56xZRHN4H3l9WmuAYTsLGpBGhQ2"
    },
    "id": "3666927",
    "neo_reference_id": "3666927",
    "name": "(2014 GN1)",
    "designation": "2014 GN1",
    "nasa_jpl_url": "http://ssd.jpl.nasa.gov/sbdb.cgi?sstr=3666927",
    "absolute_magnitude_h": 24.6,
    "estimated_diameter": {
        "kilometers": {
            "estimated_diameter_min": 0.0319561887,
            "estimated_diameter_max": 0.0714562102
        },
        "meters": {
            "estimated_diameter_min": 31.9561886721,
            "estimated_diameter_max": 71.4562101727
        },
        "miles": {
            "estimated_diameter_min": 0.0198566489,
            "estimated_diameter_max": 0.0444008168
        },
        "feet": {
            "estimated_diameter_min": 104.8431420431,
            "estimated_diameter_max": 234.436392583
        }
    },
    "is_potentially_hazardous_asteroid": false,
    "close_approach_data": [
        {
            "close_approach_date": "2014-04-06",
            "close_approach_date_full": "2014-Apr-06 10:25",
            "epoch_date_close_approach": 1396779900000,
            "relative_velocity": {
                "kilometers_per_second": "20.7184366723",
                "kilometers_per_hour": "74586.3720204488",
                "miles_per_hour": "46345.0709923728"
            },
            "miss_distance": {
                "astronomical": "0.0062650287",
                "lunar": "2.4370961643",
                "kilometers": "937234.949008869",
                "miles": "582370.7924216322"
            },
            "orbiting_body": "Earth"
        },
        {
            "close_approach_date": "2014-04-06",
            "close_approach_date_full": "2014-Apr-06 10:43",
            "epoch_date_close_approach": 1396780980000,
            "relative_velocity": {
                "kilometers_per_second": "21.6879800719",
                "kilometers_per_hour": "78076.7282588274",
                "miles_per_hour": "48513.8426228253"
            },
            "miss_distance": {
                "astronomical": "0.0041720949",
                "lunar": "1.6229449161",
                "kilometers": "624136.510477863",
                "miles": "387820.4441379894"
            },
            "orbiting_body": "Moon"
        },
        {
            "close_approach_date": "2025-07-24",
            "close_approach_date_full": "2025-Jul-24 15:49",
            "epoch_date_close_approach": 1753372140000,
            "relative_velocity": {
                "kilometers_per_second": "7.457845037",
                "kilometers_per_hour": "26848.2421331072",
                "miles_per_hour": "16682.4535632077"
            },
            "miss_distance": {
                "astronomical": "0.7646086881",
                "lunar": "297.4327796709",
                "kilometers": "114383831.123254347",
                "miles": "71074816.8769381086"
            },
            "orbiting_body": "Juptr"
        }
    ],
    "orbital_data": {
        "orbit_id": "8",
        "orbit_determination_date": "2017-04-06 08:41:46",
        "first_observation_date": "2014-03-25",
        "last_observation_date": "2014-04-06",
        "data_arc_in_days": 12,
        "observations_used": 90,
        "orbit_uncertainty": "7",
        "minimum_orbit_intersection": ".00248045",
        "jupiter_tisserand_invariant": "2.906",
        "epoch_osculation": "2459000.5",
        "eccentricity": ".7495573815085399",
        "semi_major_axis": "2.652158565479558",
        "inclination": "2.960828440166391",
        "ascending_node_longitude": "193.065341398759",
        "orbital_period": "1577.60275347254",
        "perihelion_distance": ".6642135357932551",
        "perihelion_argument": "80.36122575156642",
        "aphelion_distance": "4.640103595165861",
        "perihelion_time": "2458373.490106162179",
        "mean_anomaly": "143.0801013022856",
        "mean_motion": ".2281943278861463",
        "equinox": "J2000",
        "orbit_class": {
            "orbit_class_type": "APO",
            "orbit_class_description": "Near-Earth asteroid orbits which cross the Earth’s orbit similar to that of 1862 Apollo",
            "orbit_class_range": "a (semi-major axis) > 1.0 AU; q (perihelion) < 1.017 AU"
        }
    },
    "is_sentry_object": false
}